IRIDIUM 166             
1 43570U 18061B   23300.37317181  .00000235  00000+0  76697-4 0  9992
2 43570  86.3922  99.5570 0001997  97.5373 262.6050 14.34215849275259
IRIDIUM 158             
1 43571U 18061C   23300.48099769  .00000428  00000+0  14591-3 0  9992
2 43571  86.3923  99.5212 0002429  95.4164 264.7309 14.34217955275238
IRIDIUM 165             
1 43572U 18061D   23300.50636901  .00000108  00000+0  31553-4 0  9994
2 43572  86.3922  99.5384 0002407  98.1247 262.0222 14.34218828275264
IRIDIUM 155             
1 43573U 18061E   23300.46831503  .00000421  00000+0  14313-3 0  9997
2 43573  86.3918  99.4706 0001878  89.8873 270.2538 14.34217233275226
IRIDIUM 154             
1 43574U 18061F   23300.37951761  .00000158  00000+0  49436-4 0  9999
2 43574  86.3922  99.5945 0002272  86.1382 274.0073 14.34218508275268
IRIDIUM 163             
1 43575U 18061G   23300.50002563  .00000137  00000+0  41942-4 0  9993
2 43575  86.3921  99.4894 0002223  90.6843 269.4607 14.34219228275258
IRIDIUM 156             
1 43576U 18061H   23300.47466260  .00000140  00000+0  43079-4 0  9995
2 43576  86.3921  99.5060 0002028  97.2083 262.9343 14.34217895275249
IRIDIUM 164             
1 43577U 18061J   23300.45562787  .00000114  00000+0  33661-4 0  9992
2 43577  86.3923  99.5394 0002208  95.0530 265.0918 14.34218803275281
